[
  {
    "areacode": "0371",
    "card": "",
    "city": "郑州",
    "company": "电信",
    "phone": "18903866572",
    "province": "河南",
    "zip": "450000"
  },
  {
    "areacode": "010",
    "card": "",
    "city": "北京",
    "company": "移动",
    "phone": "18801037240",
    "province": "北京",
    "zip": "100000"
  },
  {
    "areacode": "0371",
    "card": "",
    "city": "郑州",
    "company": "移动",
    "phone": "18790253715",
    "province": "河南",
    "zip": "450000"
  },
  {
    "areacode": "0378",
    "card": "",
    "city": "开封",
    "company": "移动",
    "phone": "18703782286",
    "province": "河南",
    "zip": "475000"
  },
  {
    "areacode": "0531",
    "card": "",
    "city": "济南",
    "company": "联通",
    "phone": "18663701757",
    "province": "山东",
    "zip": "250000"
  },
  {
    "areacode": "0371",
    "card": "",
    "city": "郑州",
    "company": "联通",
    "phone": "18625592669",
    "province": "河南",
    "zip": "450000"
  },
  {
    "areacode": "0755",
    "card": "",
    "city": "深圳",
    "company": "联通",
    "phone": "18666827324",
    "province": "广东",
    "zip": "18000"
  },
  {
    "areacode": "0371",
    "card": "",
    "city": "郑州",
    "company": "联通",
    "phone": "18595753589",
    "province": "河南",
    "zip": "450000"
  },
  {
    "areacode": "0371",
    "card": "",
    "city": "郑州",
    "company": "联通",
    "phone": "18530084352",
    "province": "河南",
    "zip": "450000"
  },
  {
    "areacode": "010",
    "card": "",
    "city": "北京",
    "company": "联通",
    "phone": "18511285918",
    "province": "北京",
    "zip": "100000"
  },
  {
    "areacode": "010",
    "card": "",
    "city": "北京",
    "company": "移动",
    "phone": "18310010997",
    "province": "北京",
    "zip": "100000"
  },
  {
    "areacode": "0378",
    "card": "",
    "city": "开封",
    "company": "移动",
    "phone": "18237840473",
    "province": "河南",
    "zip": "475000"
  },
  {
    "areacode": "0371",
    "card": "",
    "city": "郑州",
    "company": "移动",
    "phone": "18236968313",
    "province": "河南",
    "zip": "450000"
  },
  {
    "areacode": "0378",
    "card": "",
    "city": "开封",
    "company": "电信",
    "phone": "17737107859",
    "province": "河南",
    "zip": "475000"
  },
  {
    "areacode": "0371",
    "card": "",
    "city": "郑州",
    "company": "电信",
    "phone": "17703825651",
    "province": "河南",
    "zip": "450000"
  },
  {
    "areacode": "010",
    "card": "",
    "city": "北京",
    "company": "联通",
    "phone": "17600818865",
    "province": "北京",
    "zip": "100000"
  },
  {
    "areacode": "010",
    "card": "",
    "city": "北京",
    "company": "电信",
    "phone": "17310589710",
    "province": "北京",
    "zip": "100000"
  },
  {
    "areacode": "0371",
    "card": "",
    "city": "郑州",
    "company": "移动",
    "phone": "17036223579",
    "province": "河南",
    "zip": ""
  },
  {
    "areacode": "010",
    "card": "",
    "city": "北京",
    "company": "联通",
    "phone": "17610563663",
    "province": "北京",
    "zip": "100000"
  },
  {
    "areacode": "010",
    "card": "",
    "city": "北京",
    "company": "联通",
    "phone": "17600693053",
    "province": "北京",
    "zip": "100000"
  },
  {
    "areacode": "010",
    "card": "",
    "city": "北京",
    "company": "电信",
    "phone": "17310240820",
    "province": "北京",
    "zip": "100000"
  },
  {
    "areacode": "010",
    "card": "",
    "city": "北京",
    "company": "电信",
    "phone": "18010160496",
    "province": "北京",
    "zip": "100000"
  },
  {
    "areacode": "010",
    "card": "",
    "city": "北京",
    "company": "移动",
    "phone": "15801493680",
    "province": "北京",
    "zip": "100000"
  },
  {
    "areacode": "010",
    "card": "",
    "city": "北京",
    "company": "移动",
    "phone": "13681323739",
    "province": "北京",
    "zip": "100000"
  },
  {
    "areacode": "010",
    "card": "",
    "city": "北京",
    "company": "移动",
    "phone": "13681323739",
    "province": "北京",
    "zip": "100000"
  },
  {
    "areacode": "0378",
    "card": "",
    "city": "开封",
    "company": "联通",
    "phone": "13017587855",
    "province": "河南",
    "zip": "475000"
  },
  {
    "areacode": "0378",
    "card": "",
    "city": "开封",
    "company": "联通",
    "phone": "15637854730",
    "province": "河南",
    "zip": "475000"
  },
  {
    "areacode": "0378",
    "card": "",
    "city": "开封",
    "company": "移动",
    "phone": "13403782714",
    "province": "河南",
    "zip": "475000"
  },
  {
    "areacode": "0378",
    "card": "",
    "city": "开封",
    "company": "移动",
    "phone": "15037857008",
    "province": "河南",
    "zip": "475000"
  },
  {
    "areacode": "0379",
    "card": "",
    "city": "洛阳",
    "company": "联通",
    "phone": "15516392187",
    "province": "河南",
    "zip": "471000"
  },
  {
    "areacode": "0371",
    "card": "",
    "city": "郑州",
    "company": "联通",
    "phone": "15639000717",
    "province": "河南",
    "zip": "450000"
  },
  {
    "areacode": "0371",
    "card": "",
    "city": "郑州",
    "company": "移动",
    "phone": "15038124379",
    "province": "河南",
    "zip": "450000"
  },
  {
    "areacode": "0378",
    "card": "",
    "city": "开封",
    "company": "联通",
    "phone": "13223805980",
    "province": "河南",
    "zip": "475000"
  },
  {
    "areacode": "0371",
    "card": "",
    "city": "郑州",
    "company": "国美极信",
    "phone": "16513902203",
    "province": "河南",
    "zip": "450000"
  },
  {
    "areacode": "0371",
    "card": "",
    "city": "郑州",
    "company": "移动",
    "phone": "15803875076",
    "province": "河南",
    "zip": "450000"
  },
  {
    "areacode": "010",
    "card": "",
    "city": "北京",
    "company": "移动",
    "phone": "13801062128",
    "province": "北京",
    "zip": "100000"
  },
  {
    "areacode": "010",
    "card": "",
    "city": "北京",
    "company": "移动",
    "phone": "13691537604",
    "province": "北京",
    "zip": "100000"
  },
  {
    "areacode": "010",
    "card": "",
    "city": "北京",
    "company": "电信",
    "phone": "17710583459",
    "province": "北京",
    "zip": "100000"
  },
  {
    "areacode": "010",
    "card": "",
    "city": "北京",
    "company": "移动",
    "phone": "13810229983",
    "province": "北京",
    "zip": "100000"
  },
  {
    "areacode": "010",
    "card": "",
    "city": "北京",
    "company": "移动",
    "phone": "13716832441",
    "province": "北京",
    "zip": "100000"
  }
]